; generated by PrusaSlicer 2.8.1+win64 on 2026-08-22 at 12:00:00 UTC

; Trimmed to the smallest file that still exercises the parser. Everything the
; PrusaSlicer parser reads is a `; key = value` comment, so the movement block
; below is only here to keep this recognisable as G-code.

M73 P0 R136
G21 ; set units to millimeters
G90 ; use absolute coordinates
M104 S215 ; set extruder temp
M140 S60 ; set bed temp
G28 ; home all axes
G1 Z0.2 F720
G1 X10.0 Y10.0 E0.5 F1200
G1 X90.0 Y10.0 E3.2 F1200
G1 X90.0 Y90.0 E5.9 F1200
M107
M104 S0 ; turn off temperature
M84 ; disable motors

; filament used [mm] = 8100.50
; filament used [cm3] = 19.48
; total filament used [g] = 24.50
; total filament cost = 0.74
; estimated printing time (normal mode) = 2h 15m 30s
; filament_type = PLA
; filament_diameter = 1.75
; layer_height = 0.2
; first_layer_height = 0.25
; fill_density = 20%
; fill_pattern = gyroid
; perimeters = 3
; support_material = 0
; spiral_vase = 0
; nozzle_diameter = 0.4
; temperature = 215
; bed_temperature = 60
